     3.03           N: GNSS NAV DATA    M: Mixed            RINEX VERSION / TYPE
RTKCONV demo5 b33c                      20220813 021803 UTC PGM / RUN BY / DATE 
log: D:\data-RADAZ\20220209-multi-freq-gnss\radar1\gnss_lo  COMMENT             
format: u-blox                                              COMMENT             
GPSA   1.4901E-08 -7.4506E-09 -5.9605E-08  1.1921E-07       IONOSPHERIC CORR    
GPSB   1.2288E+05 -1.3107E+05  0.0000E+00 -6.5536E+04       IONOSPHERIC CORR    
GAL    0.0000E+00  0.0000E+00  0.0000E+00  0.0000E+00       IONOSPHERIC CORR    
QZSA   0.0000E+00  0.0000E+00  0.0000E+00  0.0000E+00       IONOSPHERIC CORR    
QZSB   0.0000E+00  0.0000E+00  0.0000E+00  0.0000E+00       IONOSPHERIC CORR    
IRNA   0.0000E+00  0.0000E+00  0.0000E+00  0.0000E+00       IONOSPHERIC CORR    
IRNB   0.0000E+00  0.0000E+00  0.0000E+00  0.0000E+00       IONOSPHERIC CORR    
GPUT -1.8626451492E-09-3.552713679E-15 503808 2196          TIME SYSTEM CORR    
GAUT  0.0000000000E+00 0.000000000E+00      0    0          TIME SYSTEM CORR    
QZUT  0.0000000000E+00 0.000000000E+00      0    0          TIME SYSTEM CORR    
BDUT  0.0000000000E+00 0.000000000E+00      0    0          TIME SYSTEM CORR    
IRUT  0.0000000000E+00 0.000000000E+00      0    0          TIME SYSTEM CORR    
    18                                                      LEAP SECONDS        
                                                            END OF HEADER       
G25 2022  2  9 12  0  0  .283054541796E-03  .545696821064E-11  .000000000000E+00
      .630000000000E+02  .644062500000E+02  .459662003910E-08 -.782489052781E+00
      .342167913914E-05  .104756620713E-01  .731833279133E-05  .515371493340E+04
      .302400000000E+06  .204890966415E-07  .238517763154E+01  .206753611565E-06
      .957783665134E+00  .236125000000E+03  .979682264339E+00 -.821712799065E-08
     -.158220876249E-09  .100000000000E+01  .219600000000E+04  .000000000000E+00
      .200000000000E+01  .000000000000E+00  .558793544769E-08  .630000000000E+02
      .298506000000E+06  .400000000000E+01
G18 2022  2  9 12  0  0  .243854243308E-03 -.795807864051E-11  .000000000000E+00
      .134000000000E+03 -.502812500000E+02  .420624663563E-08  .987810728728E+00
     -.262446701527E-05  .209607649595E-02  .626593828201E-05  .515362441635E+04
      .302400000000E+06  .931322574615E-08 -.177857266078E+01  .558793544769E-07
      .970448615080E+00  .264687500000E+03  .310870999878E+01 -.798783272530E-08
      .832177520677E-10  .100000000000E+01  .219600000000E+04  .000000000000E+00
      .200000000000E+01  .000000000000E+00 -.838190317154E-08  .390000000000E+03
      .298506000000E+06  .400000000000E+01
G29 2022  2  9 12  0  0 -.478015746921E-03 -.477484718431E-11  .000000000000E+00
      .111000000000E+03  .158750000000E+02  .402516766439E-08  .313370343043E+01
      .821426510811E-06  .181603501551E-02  .433437526226E-05  .515375401497E+04
      .302400000000E+06  .335276126862E-07 -.277133590995E+01 -.186264514923E-08
      .982157735315E+00  .307375000000E+03  .226409223566E+01 -.793747348477E-08
     -.239295681911E-10  .100000000000E+01  .219600000000E+04  .000000000000E+00
      .280000000000E+01  .000000000000E+00 -.102445483208E-07  .111000000000E+03
      .298506000000E+06  .400000000000E+01
G 5 2022  2  9 12  0  0 -.708219595253E-04 -.136424205266E-11  .000000000000E+00
      .270000000000E+02 -.451875000000E+02  .459876298551E-08 -.283958807352E+01
     -.253133475780E-05  .587946444284E-02  .802613794804E-05  .515366297531E+04
      .302400000000E+06  .115483999252E-06 -.791335025823E+00 -.106170773506E-06
      .959528028171E+00  .224031250000E+03  .100970277991E+01 -.792390149087E-08
      .304298389535E-09  .100000000000E+01  .219600000000E+04  .000000000000E+00
      .200000000000E+01  .000000000000E+00 -.111758708954E-07  .270000000000E+02
      .298506000000E+06  .400000000000E+01
G12 2022  2  9 12  0  0 -.168407335877E-03 -.568434188608E-11  .000000000000E+00
      .860000000000E+02  .671562500000E+02  .432303721471E-08 -.532578903592E+00
      .354647636414E-05  .866383966058E-02  .735744833946E-05  .515360608292E+04
      .302400000000E+06 -.521540641785E-07  .246182199729E+01  .100582838058E-06
      .970400605035E+00  .243562500000E+03  .124547817658E+01 -.809819446516E-08
     -.746459664470E-10  .100000000000E+01  .219600000000E+04  .000000000000E+00
      .200000000000E+01  .000000000000E+00 -.125728547573E-07  .860000000000E+02
      .298506000000E+06  .400000000000E+01
G23 2022  2  9 12  0  0  .297091901302E-05 -.352429196937E-11  .000000000000E+00
      .170000000000E+03 -.405000000000E+02  .440446917811E-08  .891114955315E-01
     -.206753611565E-05  .197393749841E-02  .787898898125E-05  .515370286179E+04
      .302400000000E+06  .186264514923E-08 -.778631004261E+00 -.353902578354E-07
      .967418954163E+00  .231593750000E+03  .295165894625E+01 -.794247369305E-08
      .285726187357E-09  .100000000000E+01  .219600000000E+04  .000000000000E+00
      .200000000000E+01  .000000000000E+00 -.838190317154E-08  .682000000000E+03
      .298506000000E+06  .400000000000E+01
G20 2022  2  9 12  0  0  .516783911735E-03 -.227373675443E-12  .000000000000E+00
      .970000000000E+02 -.445312500000E+02  .496092092798E-08  .181694972869E+01
     -.241212546825E-05  .518784497399E-02  .802241265774E-05  .515374432945E+04
      .302400000000E+06  .428408384323E-07 -.905259946796E+00  .117346644402E-06
      .941673913230E+00  .212843750000E+03  .312588530071E+01 -.822069956799E-08
      .230723896291E-09  .100000000000E+01  .219600000000E+04  .000000000000E+00
      .200000000000E+01  .000000000000E+00 -.838190317154E-08  .970000000000E+02
      .298506000000E+06  .400000000000E+01
G 2 2022  2  9 11 59 44 -.650525093079E-03 -.795807864051E-12  .000000000000E+00
      .160000000000E+02 -.665937500000E+02  .442339853802E-08  .937678392835E+00
     -.365637242794E-05  .206755099352E-01  .604800879955E-05  .515369160080E+04
      .302384000000E+06 -.253319740295E-06 -.187565017389E+01 -.329688191414E-06
      .965000496030E+00  .267375000000E+03 -.144545718939E+01 -.841499337539E-08
      .285726187357E-10  .100000000000E+01  .219600000000E+04  .000000000000E+00
      .200000000000E+01  .000000000000E+00 -.176951289177E-07  .160000000000E+02
      .298506000000E+06  .400000000000E+01
R11 2022  2  9 10 45  0  .458527356386E-04 -.909494701773E-12  .298500000000E+06
      .494348876953E+04  .110717678070E+01  .931322574615E-09  .400000000000E+01
     -.197354780273E+05 -.179808235168E+01 -.186264514923E-08  .000000000000E+00
     -.153864135742E+05  .266002750397E+01  .000000000000E+00  .000000000000E+00
R10 2022  2  9 10 45  0 -.796429812908E-04  .000000000000E+00  .298500000000E+06
      .152571215820E+05 -.251348495483E+00  .931322574615E-09  .000000000000E+00
     -.203214995117E+05  .104297637939E+00 -.931322574615E-09 -.700000000000E+01
      .166117480469E+04  .356153106689E+01 -.186264514923E-08  .000000000000E+00
R21 2022  2  9 10 45  0 -.276660546660E-03 -.272848410532E-11  .298500000000E+06
      .277289257812E+04  .964377403259E+00  .186264514923E-08  .000000000000E+00
     -.159020405273E+05  .253418636322E+01 -.186264514923E-08  .400000000000E+01
     -.197386601562E+05 -.190737533569E+01  .000000000000E+00  .000000000000E+00
R 5 2022  2  9 10 45  0  .873981043696E-04  .000000000000E+00  .298500000000E+06
      .206455639648E+05 -.168893718719E+01  .931322574615E-09  .000000000000E+00
      .818800781250E+04 -.345108985901E+00 -.931322574615E-09  .100000000000E+01
     -.125102924805E+05 -.301252555847E+01  .000000000000E+00  .000000000000E+00
R20 2022  2  9 10 45  0 -.646011903882E-04 -.909494701773E-12  .298500000000E+06
      .120167680664E+05  .120162296295E+01  .931322574615E-09  .000000000000E+00
      .356436816406E+04  .280362796783E+01 -.931322574615E-09  .200000000000E+01
     -.221943134766E+05  .110439968109E+01  .931322574615E-09  .000000000000E+00
R12 2022  2  9 10 45  0  .171251595020E-04  .000000000000E+00  .298500000000E+06
     -.872852783203E+04  .183710002899E+01  .931322574615E-09  .000000000000E+00
     -.669731884766E+04 -.256283760071E+01 -.931322574615E-09 -.100000000000E+01
     -.229941567383E+05  .512962341309E-01  .186264514923E-08  .000000000000E+00
R 9 2022  2  9 10 45  0  .385576859117E-04  .272848410532E-11  .298500000000E+06
      .168781611328E+05 -.133737373352E+01  .000000000000E+00  .000000000000E+00
     -.101294707031E+05  .177577972412E+01  .000000000000E+00 -.200000000000E+01
      .162766347656E+05  .248726654053E+01 -.279396772385E-08  .000000000000E+00
C30 2022  2  9 10  0  0  .492955325171E-03  .913047415452E-12  .000000000000E+00
      .100000000000E+01 -.171718750000E+02  .372586948313E-08 -.208157448724E+01
     -.909436494112E-06  .514493789524E-03  .407733023167E-05  .528262081146E+04
      .295200000000E+06 -.745058059692E-08 -.246553027080E+01 -.228174030781E-07
      .964620930231E+00  .280734375000E+03  .174156317258E+00 -.694993234972E-08
      .289297764699E-10  .000000000000E+00  .840000000000E+03  .100000000000E+01
      .200000000000E+01  .000000000000E+00 -.980000000000E-08 -.980000000000E-08
      .298500000000E+06  .100000000000E+01
C36 2022  2  9 10  0  0 -.897325342521E-03 -.144977363448E-10  .000000000000E+00
      .100000000000E+01  .458281250000E+02  .394087843912E-08  .608288109207E+00
      .219326466322E-05  .505777308717E-03  .827992334962E-05  .528262211990E+04
      .295200000000E+06  .260770320892E-07  .174984324210E+01 -.698491930962E-08
      .948995551965E+00  .189718750000E+03 -.119779283450E+01 -.683135598197E-08
     -.282511767749E-09  .000000000000E+00  .840000000000E+03  .100000000000E+01
      .200000000000E+01  .000000000000E+00 -.217000000000E-07 -.217000000000E-07
      .298500000000E+06  .100000000000E+01
